{"type": "FeatureCollection", "features": [{"type": "Feature", "geometry": {"type": "Point", "coordinates": [0.679425, 47.798864]}, "properties": {"addr:postcode": "72310", "amenity": "post_office", "brand": "La Poste", "name": "Relais Poste", "opening_hours": "Tu,Fr 08:30-12:30,16:00-19:00; We-Th,Sa-Su 08:30-12:30; PH off; 2024 May 19 08:30-12:30", "post_office": "post_partner", "ref:FR:LaPoste": "13638A", "source": "LaPoste - 2021-01", "wheelchair": "no"}}, {"type": "Feature", "geometry": {"type": "Point", "coordinates": [0.5574662, 47.743881]}, "properties": {"addr:postcode": "72340", "amenity": "post_office", "brand": "La Poste", "name": "Relais Poste", "opening_hours": "Tu-Sa 07:30-12:30,15:00-19:00; Su 08:30-12:00; PH off; 2024 May 19 08:30-12:00", "post_office": "post_partner", "ref:FR:LaPoste": "13692A", "source": "LaPoste - 2021-01", "wheelchair": "no"}}, {"type": "Feature", "geometry": {"type": "Point", "coordinates": [0.5139771, 47.7418897]}, "properties": {"addr:postcode": "72340", "amenity": "post_office", "brand": "La Poste", "name": "Relais Poste", "opening_hours": "Mo,Th-Sa 08:30-12:30,15:00-19:00; Tu 08:30-12:30; PH off; 2024 May 20 off", "post_office": "post_partner", "ref:FR:LaPoste": "13632A", "source": "LaPoste - 2021-01", "tobacco": "yes", "wheelchair": "no"}}, {"type": "Feature", "geometry": {"type": "Point", "coordinates": [0.4669394, 47.8694613]}, "properties": {"amenity": "parcel_locker", "brand": "Mondial Relay"}}]}